{
  "type": "FeatureCollection",
  "features": [
    {
      "type": "Feature",
      "properties": {
        "_id": "69f1791e82b55bcb69059949",
        "country": "mozambique",
        "region": "palma",
        "n_submissions": 15044,
        "n_fishers": 3.157894737,
        "trip_duration": 4.645833333,
        "mean_catch_kg": 29.428092213,
        "mean_cpue": 2.150177466,
        "mean_rpue": 98.900950154,
        "mean_price_kg": 156.502712866
      },
      "geometry": {
        "type": "MultiPolygon",
        "coordinates": [
          [
            [
              [
                40.629054535,
                -11.192264207
              ],
              [
                40.646480425,
                -11.1901119
              ],
              [
                40.631076362,
                -11.196499236
              ],
              [
                40.615946969,
                -11.196726186
              ],
              [
                40.588205944,
                -11.180805478
              ],
              [
                40.584490358,
                -11.175965854
              ],
              [
                40.598646981,
                -11.180143674
              ],
              [
                40.6165993,
                -11.189748549
              ],
              [
                40.629054535,
                -11.192264207
              ]
            ]
          ],
          [
            [
              [
                40.690705131,
                -11.147591918
              ],
              [
                40.694775495,
                -11.147487023
              ],
              [
                40.698563553,
                -11.164607368
              ],
              [
                40.692044103,
                -11.166318157
              ],
              [
                40.685242356,
                -11.172045595
              ],
              [
                40.680466261,
                -11.169568086
              ],
              [
                40.677330515,
                -11.172160023
              ],
              [
                40.667190846,
                -11.172062747
              ],
              [
                40.667145065,
                -11.17691572
              ],
              [
                40.66138857,
                -11.178158282
              ],
              [
                40.653366095,
                -11.18571953
              ],
              [
                40.663280702,
                -11.172844713
              ],
              [
                40.669285164,
                -11.161819915
              ],
              [
                40.668724396,
                -11.157879556
              ],
              [
                40.6720814,
                -11.153909638
              ],
              [
                40.674046012,
                -11.148208899
              ],
              [
                40.677639531,
                -11.145614101
              ],
              [
                40.681782376,
                -11.144987576
              ],
              [
                40.690705131,
                -11.147591918
              ]
            ]
          ],
          [
            [
              [
                40.710511545,
                -11.000582815
              ],
              [
                40.714120321,
                -11.000643849
              ],
              [
                40.717282767,
                -11.003271075
              ],
              [
                40.715688189,
                -11.006315983
              ],
              [
                40.717473501,
                -11.010180052
              ],
              [
                40.714646752,
                -11.011938526
              ],
              [
                40.71566148,
                -11.014288246
              ],
              [
                40.713143727,
                -11.017635451
              ],
              [
                40.708295151,
                -11.015759677
              ],
              [
                40.708234112,
                -11.018181872
              ],
              [
                40.706551796,
                -11.0192566
              ],
              [
                40.708245555,
                -11.020307491
              ],
              [
                40.703358827,
                -11.024584473
              ],
              [
                40.702279246,
                -11.023983692
              ],
              [
                40.704873294,
                -11.021397476
              ],
              [
                40.694169033,
                -11.028657378
              ],
              [
                40.68872535,
                -11.030123088
              ],
              [
                40.680950843,
                -11.025963392
              ],
              [
                40.675888638,
                -11.026979947
              ],
              [
                40.654907374,
                -11.036114659
              ],
              [
                40.646572089,
                -11.042416174
              ],
              [
                40.643428714,
                -11.043115176
              ],
              [
                40.644336632,
                -11.040688213
              ],
              [
                40.648780845,
                -11.03891639
              ],
              [
                40.6480713,
                -11.035589209
              ],
              [
                40.645400956,
                -11.038778113
              ],
              [
                40.641254296,
                -11.03880195
              ],
              [
                40.642196543,
                -11.042285525
              ],
              [
                40.640819409,
                -11.043208628
              ],
              [
                40.638587767,
                -11.04246671
              ],
              [
                40.639724571,
                -11.039728868
              ],
              [
                40.63656594,
                -11.037620412
              ],
              [
                40.613753593,
                -11.035991612
              ],
              [
                40.599722863,
                -11.024999224
              ],
              [
                40.612078916,
                -11.024481417
              ],
              [
                40.630618712,
                -11.031206359
              ],
              [
                40.64667128,
                -11.032448937
              ],
              [
                40.66529501,
                -11.027339455
              ],
              [
                40.675476646,
                -11.022201357
              ],
              [
                40.693806637,
                -11.018730193
              ],
              [
                40.701977888,
                -11.011624776
              ],
              [
                40.703015511,
                -11.005321348
              ],
              [
                40.708745305,
                -11.000207088
              ],
              [
                40.710511545,
                -11.000582815
              ]
            ]
          ],
          [
            [
              [
                40.628444378,
                -10.913134845
              ],
              [
                40.630779017,
                -10.915713435
              ],
              [
                40.630794274,
                -10.918592414
              ],
              [
                40.625945692,
                -10.924741353
              ],
              [
                40.622226299,
                -10.908644244
              ],
              [
                40.628444378,
                -10.913134845
              ]
            ]
          ],
          [
            [
              [
                40.662071668,
                -10.832846739
              ],
              [
                40.66880474,
                -10.836983547
              ],
              [
                40.673954685,
                -10.837939078
              ],
              [
                40.680806014,
                -10.844108051
              ],
              [
                40.683968459,
                -10.847965446
              ],
              [
                40.684185896,
                -10.854525398
              ],
              [
                40.680767856,
                -10.858296963
              ],
              [
                40.670940997,
                -10.860857426
              ],
              [
                40.666523485,
                -10.86550632
              ],
              [
                40.663227516,
                -10.872235061
              ],
              [
                40.658531528,
                -10.874137529
              ],
              [
                40.658840523,
                -10.87572626
              ],
              [
                40.654777788,
                -10.876922097
              ],
              [
                40.651565751,
                -10.874006878
              ],
              [
                40.64769757,
                -10.873960148
              ],
              [
                40.65117664,
                -10.87863575
              ],
              [
                40.644756375,
                -10.880330328
              ],
              [
                40.648975523,
                -10.868018143
              ],
              [
                40.648853459,
                -10.856648131
              ],
              [
                40.652473683,
                -10.851571061
              ],
              [
                40.654686257,
                -10.844582935
              ],
              [
                40.660782259,
                -10.853694778
              ],
              [
                40.663731073,
                -10.861522094
              ],
              [
                40.667038484,
                -10.85934975
              ],
              [
                40.672905607,
                -10.858665055
              ],
              [
                40.667328408,
                -10.857700941
              ],
              [
                40.665024288,
                -10.852342548
              ],
              [
                40.662109803,
                -10.850307521
              ],
              [
                40.661606256,
                -10.845207561
              ],
              [
                40.663719644,
                -10.841441717
              ],
              [
                40.66175885,
                -10.840819002
              ],
              [
                40.658161524,
                -10.833562905
              ],
              [
                40.655311889,
                -10.832298402
              ],
              [
                40.656528805,
                -10.827191768
              ],
              [
                40.652771256,
                -10.823339141
              ],
              [
                40.662071668,
                -10.832846739
              ]
            ]
          ],
          [
            [
              [
                40.64894889,
                -10.770957745
              ],
              [
                40.657543575,
                -10.771326802
              ],
              [
                40.661964893,
                -10.777746575
              ],
              [
                40.659096171,
                -10.794983254
              ],
              [
                40.656883605,
                -10.791011425
              ],
              [
                40.653568558,
                -10.802637005
              ],
              [
                40.650299306,
                -10.790045404
              ],
              [
                40.647129233,
                -10.784913019
              ],
              [
                40.642242511,
                -10.780012362
              ],
              [
                40.630889748,
                -10.773809056
              ],
              [
                40.634075086,
                -10.771263847
              ],
              [
                40.637516012,
                -10.771483182
              ],
              [
                40.639808693,
                -10.768475466
              ],
              [
                40.64894889,
                -10.770957745
              ]
            ]
          ],
          [
            [
              [
                40.497807692,
                -10.57281639
              ],
              [
                40.514760549,
                -10.570455239
              ],
              [
                40.518804208,
                -10.572430189
              ],
              [
                40.520925219,
                -10.576470678
              ],
              [
                40.520051634,
                -10.579075014
              ],
              [
                40.508988785,
                -10.585342196
              ],
              [
                40.496136812,
                -10.586592383
              ],
              [
                40.487912161,
                -10.584688952
              ],
              [
                40.487557389,
                -10.581764199
              ],
              [
                40.491276797,
                -10.57657937
              ],
              [
                40.490365073,
                -10.566704635
              ],
              [
                40.49268827,
                -10.566828607
              ],
              [
                40.497807692,
                -10.57281639
              ]
            ]
          ],
          [
            [
              [
                40.515786727,
                -10.564338722
              ],
              [
                40.525186328,
                -10.567011725
              ],
              [
                40.525285511,
                -10.568848397
              ],
              [
                40.521012963,
                -10.569973666
              ],
              [
                40.513131642,
                -10.567667807
              ],
              [
                40.501710207,
                -10.570839539
              ],
              [
                40.498154839,
                -10.570053754
              ],
              [
                40.499150496,
                -10.567787
              ],
              [
                40.504414887,
                -10.564449334
              ],
              [
                40.501363071,
                -10.560153274
              ],
              [
                40.502785984,
                -10.556216732
              ],
              [
                40.515786727,
                -10.564338722
              ]
            ]
          ],
          [
            [
              [
                40.464333115,
                -10.484294691
              ],
              [
                40.463985969,
                -10.487066863
              ],
              [
                40.466538053,
                -10.487123129
              ],
              [
                40.468342442,
                -10.484666605
              ],
              [
                40.467957153,
                -10.480198896
              ],
              [
                40.471180638,
                -10.479037389
              ],
              [
                40.486252804,
                -10.48660342
              ],
              [
                40.500588721,
                -10.489690297
              ],
              [
                40.498776702,
                -10.491796842
              ],
              [
                40.491440891,
                -10.49328067
              ],
              [
                40.487206489,
                -10.498594237
              ],
              [
                40.480450527,
                -10.494645292
              ],
              [
                40.477513145,
                -10.503686561
              ],
              [
                40.479355677,
                -10.50836216
              ],
              [
                40.476357263,
                -10.511860036
              ],
              [
                40.478470647,
                -10.513200827
              ],
              [
                40.490655038,
                -10.507833863
              ],
              [
                40.507863492,
                -10.493447565
              ],
              [
                40.510781797,
                -10.488964599
              ],
              [
                40.511334944,
                -10.482330266
              ],
              [
                40.520536179,
                -10.481393818
              ],
              [
                40.529035492,
                -10.485480085
              ],
              [
                40.528268719,
                -10.490261535
              ],
              [
                40.532060604,
                -10.491212296
              ],
              [
                40.533948912,
                -10.498012561
              ],
              [
                40.536809992,
                -10.498876543
              ],
              [
                40.534227384,
                -10.508071344
              ],
              [
                40.537206716,
                -10.516917125
              ],
              [
                40.541525035,
                -10.523497105
              ],
              [
                40.543646043,
                -10.532883588
              ],
              [
                40.548067363,
                -10.536061052
              ],
              [
                40.549349125,
                -10.539017275
              ],
              [
                40.545610642,
                -10.545826119
              ],
              [
                40.545400825,
                -10.552208697
              ],
              [
                40.543321773,
                -10.552654036
              ],
              [
                40.541254167,
                -10.55086409
              ],
              [
                40.539678663,
                -10.553082209
              ],
              [
                40.535314564,
                -10.549957193
              ],
              [
                40.531148831,
                -10.550442583
              ],
              [
                40.532155929,
                -10.554105438
              ],
              [
                40.526643581,
                -10.554103527
              ],
              [
                40.522451141,
                -10.558679946
              ],
              [
                40.5185143,
                -10.551112969
              ],
              [
                40.51707613,
                -10.551712795
              ],
              [
                40.517362234,
                -10.55681943
              ],
              [
                40.515988915,
                -10.557659568
              ],
              [
                40.509591542,
                -10.554296146
              ],
              [
                40.503709161,
                -10.553314867
              ],
              [
                40.499982126,
                -10.555350843
              ],
              [
                40.498257844,
                -10.561483571
              ],
              [
                40.495663797,
                -10.562227393
              ],
              [
                40.490521483,
                -10.560609097
              ],
              [
                40.483143705,
                -10.568061631
              ],
              [
                40.481346949,
                -10.565573636
              ],
              [
                40.483075047,
                -10.556964356
              ],
              [
                40.476685301,
                -10.556695431
              ],
              [
                40.471947348,
                -10.562954035
              ],
              [
                40.471943531,
                -10.565483989
              ],
              [
                40.47501061,
                -10.564953778
              ],
              [
                40.47675778,
                -10.559860495
              ],
              [
                40.47869187,
                -10.559500028
              ],
              [
                40.478936007,
                -10.572181266
              ],
              [
                40.480824319,
                -10.573518243
              ],
              [
                40.48799228,
                -10.572332898
              ],
              [
                40.488732345,
                -10.574325011
              ],
              [
                40.487992276,
                -10.577734202
              ],
              [
                40.484463608,
                -10.580913568
              ],
              [
                40.483578573,
                -10.590813096
              ],
              [
                40.488450041,
                -10.588014225
              ],
              [
                40.494309532,
                -10.590709159
              ],
              [
                40.51078554,
                -10.59052989
              ],
              [
                40.522409159,
                -10.585980177
              ],
              [
                40.528238138,
                -10.579301027
              ],
              [
                40.538232847,
                -10.577310829
              ],
              [
                40.547437893,
                -10.581539187
              ],
              [
                40.551641771,
                -10.585484315
              ],
              [
                40.559359057,
                -10.588132523
              ],
              [
                40.569822975,
                -10.596822869
              ],
              [
                40.577334264,
                -10.598103586
              ],
              [
                40.58419704,
                -10.601345898
              ],
              [
                40.585303322,
                -10.604252533
              ],
              [
                40.581625877,
                -10.608414128
              ],
              [
                40.581717429,
                -10.612610055
              ],
              [
                40.573363072,
                -10.615315469
              ],
              [
                40.570215876,
                -10.625321801
              ],
              [
                40.569243096,
                -10.644379895
              ],
              [
                40.573893295,
                -10.657964215
              ],
              [
                40.581622021,
                -10.666307441
              ],
              [
                40.587893509,
                -10.66634273
              ],
              [
                40.607390815,
                -10.671392161
              ],
              [
                40.61952561,
                -10.671642018
              ],
              [
                40.627475597,
                -10.674173885
              ],
              [
                40.635662096,
                -10.682107055
              ],
              [
                40.639892675,
                -10.689600603
              ],
              [
                40.640461073,
                -10.694411617
              ],
              [
                40.639366225,
                -10.705075948
              ],
              [
                40.630275616,
                -10.708716863
              ],
              [
                40.616714102,
                -10.699291273
              ],
              [
                40.596228768,
                -10.696860482
              ],
              [
                40.591193268,
                -10.695010456
              ],
              [
                40.586035697,
                -10.690068793
              ],
              [
                40.577864451,
                -10.69069913
              ],
              [
                40.564032076,
                -10.697773074
              ],
              [
                40.552438971,
                -10.708102677
              ],
              [
                40.513711367,
                -10.736900066
              ],
              [
                40.507249141,
                -10.735810073
              ],
              [
                40.506196261,
                -10.738921735
              ],
              [
                40.505536306,
                -10.737106995
              ],
              [
                40.498997787,
                -10.733220036
              ],
              [
                40.498887157,
                -10.735151116
              ],
              [
                40.501923715,
                -10.737769759
              ],
              [
                40.498486603,
                -10.738023419
              ],
              [
                40.499444111,
                -10.739480551
              ],
              [
                40.497014099,
                -10.740077516
              ],
              [
                40.494931235,
                -10.737517044
              ],
              [
                40.495259309,
                -10.732646907
              ],
              [
                40.497571062,
                -10.732806164
              ],
              [
                40.505063282,
                -10.725742706
              ],
              [
                40.505170098,
                -10.723345305
              ],
              [
                40.498368354,
                -10.726066932
              ],
              [
                40.493710512,
                -10.730952324
              ],
              [
                40.492974256,
                -10.737403562
              ],
              [
                40.485474397,
                -10.755366897
              ],
              [
                40.48481062,
                -10.76516248
              ],
              [
                40.487080408,
                -10.768202623
              ],
              [
                40.483196964,
                -10.774487929
              ],
              [
                40.48789294,
                -10.788764577
              ],
              [
                40.489994885,
                -10.782594657
              ],
              [
                40.490616688,
                -10.788752182
              ],
              [
                40.48144215,
                -10.798898692
              ],
              [
                40.484509227,
                -10.800143169
              ],
              [
                40.484558821,
                -10.797683783
              ],
              [
                40.489701138,
                -10.795377933
              ],
              [
                40.49240963,
                -10.791795185
              ],
              [
                40.493561697,
                -10.78440177
              ],
              [
                40.491021065,
                -10.774683427
              ],
              [
                40.493332818,
                -10.774026384
              ],
              [
                40.52608264,
                -10.789663868
              ],
              [
                40.572393973,
                -10.819466433
              ],
              [
                40.598155136,
                -10.826068363
              ],
              [
                40.613036568,
                -10.826991477
              ],
              [
                40.619350015,
                -10.832000848
              ],
              [
                40.615931975,
                -10.835772412
              ],
              [
                40.601927934,
                -10.844685889
              ],
              [
                40.60026469,
                -10.847499066
              ],
              [
                40.603720878,
                -10.844300627
              ],
              [
                40.605048417,
                -10.847703145
              ],
              [
                40.603991723,
                -10.850008043
              ],
              [
                40.606017367,
                -10.850405704
              ],
              [
                40.60652855,
                -10.846168771
              ],
              [
                40.60897382,
                -10.84668182
              ],
              [
                40.611270317,
                -10.841789751
              ],
              [
                40.6118082,
                -10.84272716
              ],
              [
                40.609340037,
                -10.84856522
              ],
              [
                40.590563707,
                -10.866728807
              ],
              [
                40.545785876,
                -10.887681714
              ],
              [
                40.515752142,
                -10.91364209
              ],
              [
                40.51124689,
                -10.918696273
              ],
              [
                40.510674671,
                -10.923025708
              ],
              [
                40.508305696,
                -10.923568316
              ],
              [
                40.508557469,
                -10.92649593
              ],
              [
                40.50690567,
                -10.928555748
              ],
              [
                40.506188494,
                -10.926913613
              ],
              [
                40.504651139,
                -10.927686998
              ],
              [
                40.502770453,
                -10.931393718
              ],
              [
                40.504273473,
                -10.932379762
              ],
              [
                40.496334921,
                -10.942470964
              ],
              [
                40.494931081,
                -10.947423111
              ],
              [
                40.496815578,
                -10.948927925
              ],
              [
                40.493336503,
                -10.950790342
              ],
              [
                40.493969755,
                -10.951851722
              ],
              [
                40.496464618,
                -10.950246781
              ],
              [
                40.498360558,
                -10.95337561
              ],
              [
                40.496392135,
                -10.953828578
              ],
              [
                40.497033015,
                -10.956387141
              ],
              [
                40.492642211,
                -10.954908073
              ],
              [
                40.492035659,
                -10.958664382
              ],
              [
                40.494728888,
                -10.960508685
              ],
              [
                40.493660751,
                -10.961575785
              ],
              [
                40.491059076,
                -10.96016824
              ],
              [
                40.490643261,
                -10.966890308
              ],
              [
                40.49208143,
                -10.967769546
              ],
              [
                40.492588799,
                -10.962382547
              ],
              [
                40.495800827,
                -10.978399552
              ],
              [
                40.498772533,
                -10.981842122
              ],
              [
                40.495995378,
                -10.981059198
              ],
              [
                40.492924481,
                -10.986993573
              ],
              [
                40.488510787,
                -10.987327337
              ],
              [
                40.487873721,
                -10.98538672
              ],
              [
                40.493840032,
                -10.979434228
              ],
              [
                40.490681403,
                -10.974497335
              ],
              [
                40.489548411,
                -10.98015993
              ],
              [
                40.4835821,
                -10.985672803
              ],
              [
                40.48378428,
                -10.990620184
              ],
              [
                40.481312301,
                -10.997356554
              ],
              [
                40.482407138,
                -11.001402764
              ],
              [
                40.487785968,
                -11.003503593
              ],
              [
                40.491173489,
                -11.000745727
              ],
              [
                40.496537062,
                -10.999832162
              ],
              [
                40.501557302,
                -11.002471786
              ],
              [
                40.501900635,
                -10.999017775
              ],
              [
                40.503079398,
                -11.002101783
              ],
              [
                40.501511523,
                -11.005621593
              ],
              [
                40.502007439,
                -11.012302656
              ],
              [
                40.507355745,
                -11.02071931
              ],
              [
                40.506905599,
                -11.024327808
              ],
              [
                40.510121455,
                -11.023109084
              ],
              [
                40.510266418,
                -11.020907175
              ],
              [
                40.506791161,
                -11.016974444
              ],
              [
                40.505597143,
                -11.008714186
              ],
              [
                40.508301815,
                -11.012647871
              ],
              [
                40.511521485,
                -11.011419611
              ],
              [
                40.513776012,
                -11.017105095
              ],
              [
                40.523915681,
                -11.018333365
              ],
              [
                40.524678636,
                -11.017345415
              ],
              [
                40.519994094,
                -11.016761796
              ],
              [
                40.51806382,
                -11.014495994
              ],
              [
                40.523591427,
                -11.014878399
              ],
              [
                40.53428805,
                -11.019760942
              ],
              [
                40.536840131,
                -11.023088124
              ],
              [
                40.540979162,
                -11.021773085
              ],
              [
                40.566286364,
                -11.031617323
              ],
              [
                40.566065106,
                -11.033219404
              ],
              [
                40.563001842,
                -11.034516325
              ],
              [
                40.563490129,
                -11.039824175
              ],
              [
                40.565515772,
                -11.043029294
              ],
              [
                40.558923828,
                -11.061988209
              ],
              [
                40.558927642,
                -11.063046728
              ],
              [
                40.560533663,
                -11.061517122
              ],
              [
                40.560922769,
                -11.062655745
              ],
              [
                40.551023419,
                -11.078478202
              ],
              [
                40.531560426,
                -11.10061457
              ],
              [
                40.528222493,
                -11.108216827
              ],
              [
                40.50255286,
                -11.134511928
              ],
              [
                40.501725051,
                -11.138156664
              ],
              [
                40.493927648,
                -11.144642228
              ],
              [
                40.491493819,
                -11.149431306
              ],
              [
                40.489964085,
                -11.161609034
              ],
              [
                40.493347775,
                -11.181388071
              ],
              [
                40.502457448,
                -11.19036355
              ],
              [
                40.505761042,
                -11.190962426
              ],
              [
                40.509930587,
                -11.195109723
              ],
              [
                40.509865734,
                -11.19708467
              ],
              [
                40.487873555,
                -11.207544912
              ],
              [
                40.447662004,
                -11.231823097
              ],
              [
                40.436698342,
                -11.233795175
              ],
              [
                40.431895544,
                -11.230577657
              ],
              [
                40.429686789,
                -11.232292264
              ],
              [
                40.427069854,
                -11.231694343
              ],
              [
                40.423091043,
                -11.23490804
              ],
              [
                40.421664312,
                -11.241511858
              ],
              [
                40.418074606,
                -11.246071113
              ],
              [
                40.411780229,
                -11.247089574
              ],
              [
                40.404547419,
                -11.244964903
              ],
              [
                40.395021928,
                -11.245767844
              ],
              [
                40.386320432,
                -11.24178552
              ],
              [
                40.370882053,
                -11.226384544
              ],
              [
                40.365075975,
                -11.21662996
              ],
              [
                40.363099931,
                -11.204877544
              ],
              [
                40.351861611,
                -11.199923479
              ],
              [
                40.345174313,
                -11.199424731
              ],
              [
                40.341084878,
                -11.195953551
              ],
              [
                40.336182904,
                -11.182091726
              ],
              [
                40.336671203,
                -11.171704896
              ],
              [
                40.333436276,
                -11.169217852
              ],
              [
                40.330476018,
                -11.160727771
              ],
              [
                40.326073774,
                -11.15537033
              ],
              [
                40.304325752,
                -11.14982692
              ],
              [
                40.29360242,
                -11.152414083
              ],
              [
                40.282814241,
                -11.151268777
              ],
              [
                40.270954108,
                -11.152149914
              ],
              [
                40.258170803,
                -11.150010934
              ],
              [
                40.247409323,
                -11.153809195
              ],
              [
                40.239734,
                -11.15076428
              ],
              [
                40.228705495,
                -11.142098726
              ],
              [
                40.2182225,
                -11.13807921
              ],
              [
                40.205240838,
                -11.120357125
              ],
              [
                40.196066312,
                -11.11464398
              ],
              [
                40.192835202,
                -11.109074836
              ],
              [
                40.180013754,
                -11.101069186
              ],
              [
                40.161359528,
                -11.077570067
              ],
              [
                40.15260082,
                -11.061339448
              ],
              [
                40.142941812,
                -11.061559726
              ],
              [
                40.140305804,
                -11.060276152
              ],
              [
                40.135274116,
                -11.062191017
              ],
              [
                40.127884899,
                -11.062312121
              ],
              [
                40.111897187,
                -11.056010588
              ],
              [
                40.108238821,
                -11.052972352
              ],
              [
                40.104687267,
                -11.052625232
              ],
              [
                40.099712798,
                -11.058327876
              ],
              [
                40.093662564,
                -11.062034592
              ],
              [
                40.084449886,
                -11.060698563
              ],
              [
                40.081035663,
                -11.061955432
              ],
              [
                40.080940286,
                -11.07087464
              ],
              [
                39.984258727,
                -10.984786519
              ],
              [
                39.981821089,
                -10.980864278
              ],
              [
                39.984380806,
                -10.976143861
              ],
              [
                39.992285023,
                -10.968785735
              ],
              [
                39.993330273,
                -10.965735106
              ],
              [
                39.990835415,
                -10.961418066
              ],
              [
                39.975103299,
                -10.947239632
              ],
              [
                39.969182776,
                -10.938770528
              ],
              [
                39.970071639,
                -10.912577449
              ],
              [
                39.975610719,
                -10.875680942
              ],
              [
                39.987234346,
                -10.86106291
              ],
              [
                39.986017436,
                -10.856402569
              ],
              [
                39.977136649,
                -10.848971001
              ],
              [
                39.976617842,
                -10.845569439
              ],
              [
                39.979520888,
                -10.841659599
              ],
              [
                39.992826826,
                -10.831710492
              ],
              [
                39.998163709,
                -10.813240784
              ],
              [
                40.003660798,
                -10.813106328
              ],
              [
                40.028556027,
                -10.792152455
              ],
              [
                40.04528001,
                -10.77198722
              ],
              [
                40.054626212,
                -10.763295934
              ],
              [
                40.087818574,
                -10.742404053
              ],
              [
                40.10306242,
                -10.729797208
              ],
              [
                40.120663802,
                -10.7076103
              ],
              [
                40.139802531,
                -10.695390628
              ],
              [
                40.165304311,
                -10.670904547
              ],
              [
                40.182985797,
                -10.658412139
              ],
              [
                40.193735837,
                -10.647858435
              ],
              [
                40.202586121,
                -10.635319292
              ],
              [
                40.23670548,
                -10.604278988
              ],
              [
                40.279690369,
                -10.57851793
              ],
              [
                40.312989532,
                -10.575247991
              ],
              [
                40.32843555,
                -10.575803963
              ],
              [
                40.337304897,
                -10.578037347
              ],
              [
                40.351259343,
                -10.573896739
              ],
              [
                40.370283631,
                -10.55729709
              ],
              [
                40.38641252,
                -10.521713728
              ],
              [
                40.392165203,
                -10.516832152
              ],
              [
                40.407424301,
                -10.511467097
              ],
              [
                40.416411912,
                -10.505755873
              ],
              [
                40.424907422,
                -10.49333498
              ],
              [
                40.429935302,
                -10.481784739
              ],
              [
                40.438575763,
                -10.484255574
              ],
              [
                40.445350807,
                -10.475608154
              ],
              [
                40.450123091,
                -10.473665633
              ],
              [
                40.461266041,
                -10.479234781
              ],
              [
                40.464333115,
                -10.484294691
              ]
            ]
          ]
        ]
      }
    },
    {
      "type": "Feature",
      "properties": {
        "_id": "69f1791e82b55bcb69059948",
        "country": "mozambique",
        "region": "mocimboa",
        "n_submissions": 14265,
        "n_fishers": 3.030507944,
        "trip_duration": 5.298611111,
        "mean_catch_kg": 28.988858258,
        "mean_cpue": 3.122347363,
        "mean_rpue": 171.19812306,
        "mean_price_kg": 306.820208991
      },
      "geometry": {
        "type": "MultiPolygon",
        "coordinates": [
          [
            [
              [
                40.535207103,
                -11.426583864
              ],
              [
                40.526669639,
                -11.425556809
              ],
              [
                40.521729509,
                -11.422024596
              ],
              [
                40.520794892,
                -11.419608122
              ],
              [
                40.531110039,
                -11.422122826
              ],
              [
                40.535207103,
                -11.426583864
              ]
            ]
          ],
          [
            [
              [
                40.653491845,
                -11.368485597
              ],
              [
                40.649505405,
                -11.370410953
              ],
              [
                40.631747632,
                -11.369519305
              ],
              [
                40.627070717,
                -11.372054024
              ],
              [
                40.624526265,
                -11.370164901
              ],
              [
                40.627967193,
                -11.367348863
              ],
              [
                40.639964656,
                -11.368866081
              ],
              [
                40.647556059,
                -11.365644758
              ],
              [
                40.653018814,
                -11.366667997
              ],
              [
                40.653491845,
                -11.368485597
              ]
            ]
          ],
          [
            [
              [
                40.535939588,
                -11.362903971
              ],
              [
                40.530244132,
                -11.361265647
              ],
              [
                40.525220078,
                -11.355984495
              ],
              [
                40.528214676,
                -11.355513409
              ],
              [
                40.535767926,
                -11.359041809
              ],
              [
                40.53785842,
                -11.36221832
              ],
              [
                40.535939588,
                -11.362903971
              ]
            ]
          ],
          [
            [
              [
                40.5796989,
                -11.311137688
              ],
              [
                40.586466308,
                -11.312174278
              ],
              [
                40.58371204,
                -11.31422742
              ],
              [
                40.577623663,
                -11.311531531
              ],
              [
                40.5796989,
                -11.311137688
              ]
            ]
          ],
          [
            [
              [
                40.105499814,
                -11.05260616
              ],
              [
                40.127884899,
                -11.062312121
              ],
              [
                40.135274116,
                -11.062191017
              ],
              [
                40.140305804,
                -11.060276152
              ],
              [
                40.142941812,
                -11.061559726
              ],
              [
                40.15260082,
                -11.061339448
              ],
              [
                40.161359528,
                -11.077570067
              ],
              [
                40.180013754,
                -11.101069186
              ],
              [
                40.192835202,
                -11.109074836
              ],
              [
                40.196066312,
                -11.11464398
              ],
              [
                40.205240838,
                -11.120357125
              ],
              [
                40.2182225,
                -11.13807921
              ],
              [
                40.228705495,
                -11.142098726
              ],
              [
                40.242843039,
                -11.152322498
              ],
              [
                40.249267118,
                -11.153656617
              ],
              [
                40.261604099,
                -11.149945137
              ],
              [
                40.270954108,
                -11.152149914
              ],
              [
                40.296337613,
                -11.152374033
              ],
              [
                40.304325752,
                -11.14982692
              ],
              [
                40.326073774,
                -11.15537033
              ],
              [
                40.330476018,
                -11.160727771
              ],
              [
                40.333436276,
                -11.169217852
              ],
              [
                40.336671203,
                -11.171704896
              ],
              [
                40.336182904,
                -11.182091726
              ],
              [
                40.341084878,
                -11.195953551
              ],
              [
                40.345174313,
                -11.199424731
              ],
              [
                40.351861611,
                -11.199923479
              ],
              [
                40.363099931,
                -11.204877544
              ],
              [
                40.365075975,
                -11.21662996
              ],
              [
                40.368406268,
                -11.222757925
              ],
              [
                40.374204718,
                -11.23024194
              ],
              [
                40.388864884,
                -11.243669875
              ],
              [
                40.395021928,
                -11.245767844
              ],
              [
                40.404547419,
                -11.244964903
              ],
              [
                40.411780229,
                -11.247089574
              ],
              [
                40.418074606,
                -11.246071113
              ],
              [
                40.421664312,
                -11.241511858
              ],
              [
                40.423091043,
                -11.23490804
              ],
              [
                40.427069854,
                -11.231694343
              ],
              [
                40.434138631,
                -11.231364395
              ],
              [
                40.433101006,
                -11.239026732
              ],
              [
                40.426413696,
                -11.254601251
              ],
              [
                40.426318317,
                -11.266439491
              ],
              [
                40.422797279,
                -11.268951324
              ],
              [
                40.423041422,
                -11.271915175
              ],
              [
                40.425036549,
                -11.271452671
              ],
              [
                40.42336949,
                -11.276016696
              ],
              [
                40.424838176,
                -11.277666459
              ],
              [
                40.422305166,
                -11.278287264
              ],
              [
                40.402403466,
                -11.310195379
              ],
              [
                40.379530064,
                -11.33214579
              ],
              [
                40.376585063,
                -11.327077296
              ],
              [
                40.376714769,
                -11.321698879
              ],
              [
                40.374696756,
                -11.31877031
              ],
              [
                40.372690185,
                -11.318955311
              ],
              [
                40.368669407,
                -11.32666628
              ],
              [
                40.363828459,
                -11.326760685
              ],
              [
                40.354199972,
                -11.322945243
              ],
              [
                40.351872964,
                -11.317950179
              ],
              [
                40.347085427,
                -11.313187797
              ],
              [
                40.337254753,
                -11.314680205
              ],
              [
                40.334698858,
                -11.310508115
              ],
              [
                40.330311869,
                -11.308642831
              ],
              [
                40.328900407,
                -11.30287915
              ],
              [
                40.324192979,
                -11.298733759
              ],
              [
                40.32806497,
                -11.305162116
              ],
              [
                40.32917125,
                -11.311291987
              ],
              [
                40.332478658,
                -11.312043442
              ],
              [
                40.337037308,
                -11.317862435
              ],
              [
                40.346108841,
                -11.317663135
              ],
              [
                40.350713266,
                -11.326828382
              ],
              [
                40.355851763,
                -11.330935628
              ],
              [
                40.361085632,
                -11.332196317
              ],
              [
                40.365205576,
                -11.347420866
              ],
              [
                40.374570836,
                -11.360808746
              ],
              [
                40.374963756,
                -11.362925783
              ],
              [
                40.372213301,
                -11.366540001
              ],
              [
                40.376665143,
                -11.365118157
              ],
              [
                40.376798664,
                -11.360798258
              ],
              [
                40.382700122,
                -11.357122057
              ],
              [
                40.384699063,
                -11.357349974
              ],
              [
                40.382841271,
                -11.354318414
              ],
              [
                40.389593423,
                -11.351941044
              ],
              [
                40.393522638,
                -11.353888339
              ],
              [
                40.39609379,
                -11.360786829
              ],
              [
                40.407042186,
                -11.367753033
              ],
              [
                40.415007427,
                -11.377529552
              ],
              [
                40.413435733,
                -11.386184608
              ],
              [
                40.415610151,
                -11.390956525
              ],
              [
                40.417143691,
                -11.389958085
              ],
              [
                40.420370988,
                -11.392083707
              ],
              [
                40.425375972,
                -11.391363728
              ],
              [
                40.422484368,
                -11.397441147
              ],
              [
                40.425345436,
                -11.413914937
              ],
              [
                40.428481181,
                -11.41254268
              ],
              [
                40.429114431,
                -11.416636572
              ],
              [
                40.431960252,
                -11.416923614
              ],
              [
                40.428671926,
                -11.404803099
              ],
              [
                40.433032216,
                -11.400241937
              ],
              [
                40.444426943,
                -11.403674978
              ],
              [
                40.445670558,
                -11.406541561
              ],
              [
                40.449447182,
                -11.408868398
              ],
              [
                40.446704356,
                -11.413595491
              ],
              [
                40.447707641,
                -11.41442228
              ],
              [
                40.450397057,
                -11.413806243
              ],
              [
                40.452376928,
                -11.409852536
              ],
              [
                40.45814868,
                -11.411185701
              ],
              [
                40.453746433,
                -11.407717381
              ],
              [
                40.461807055,
                -11.401589424
              ],
              [
                40.470092744,
                -11.40213204
              ],
              [
                40.476276488,
                -11.408182765
              ],
              [
                40.468669816,
                -11.423908909
              ],
              [
                40.467811483,
                -11.436357466
              ],
              [
                40.464137852,
                -11.44024728
              ],
              [
                40.459533419,
                -11.441397343
              ],
              [
                40.459544862,
                -11.443523916
              ],
              [
                40.456863074,
                -11.445736312
              ],
              [
                40.456435814,
                -11.452414514
              ],
              [
                40.459777551,
                -11.45941695
              ],
              [
                40.459968284,
                -11.466617736
              ],
              [
                40.454906077,
                -11.468910235
              ],
              [
                40.458522482,
                -11.469758959
              ],
              [
                40.45577583,
                -11.488331664
              ],
              [
                40.452796488,
                -11.492751691
              ],
              [
                40.450339774,
                -11.492832747
              ],
              [
                40.450194811,
                -11.494801019
              ],
              [
                40.443290067,
                -11.498020436
              ],
              [
                40.438403336,
                -11.50479495
              ],
              [
                40.441012636,
                -11.512292314
              ],
              [
                40.451110334,
                -11.523778677
              ],
              [
                40.452136505,
                -11.528247342
              ],
              [
                40.441024061,
                -11.536492333
              ],
              [
                40.435786378,
                -11.53492267
              ],
              [
                40.437350431,
                -11.540033122
              ],
              [
                40.43519127,
                -11.53906615
              ],
              [
                40.426913206,
                -11.544788818
              ],
              [
                40.418505436,
                -11.555145127
              ],
              [
                40.421465693,
                -11.564311327
              ],
              [
                40.423315859,
                -11.56323183
              ],
              [
                40.424551845,
                -11.56421406
              ],
              [
                40.424067361,
                -11.574761099
              ],
              [
                40.42261393,
                -11.576746535
              ],
              [
                40.428435267,
                -11.586727129
              ],
              [
                40.444716716,
                -11.596203265
              ],
              [
                40.448047009,
                -11.601034308
              ],
              [
                40.456981209,
                -11.602965396
              ],
              [
                40.461490264,
                -11.612269872
              ],
              [
                40.461661927,
                -11.615602775
              ],
              [
                40.457866219,
                -11.62502454
              ],
              [
                40.452323353,
                -11.624603035
              ],
              [
                40.441836531,
                -11.634441527
              ],
              [
                40.4356833,
                -11.634852533
              ],
              [
                40.432497969,
                -11.628715984
              ],
              [
                40.433226584,
                -11.636225744
              ],
              [
                40.430781312,
                -11.639348848
              ],
              [
                40.432101222,
                -11.641764369
              ],
              [
                40.418482466,
                -11.657041355
              ],
              [
                40.418417614,
                -11.65900772
              ],
              [
                40.426535459,
                -11.651465544
              ],
              [
                40.434680003,
                -11.649836766
              ],
              [
                40.43546203,
                -11.652032954
              ],
              [
                40.438220113,
                -11.649959786
              ],
              [
                40.441451226,
                -11.64987587
              ],
              [
                40.443846903,
                -11.651868938
              ],
              [
                40.444480153,
                -11.655198981
              ],
              [
                40.441874661,
                -11.657232097
              ],
              [
                40.441588549,
                -11.661366994
              ],
              [
                40.439223386,
                -11.665242505
              ],
              [
                40.442393461,
                -11.667878314
              ],
              [
                40.441020141,
                -11.670391102
              ],
              [
                40.436415707,
                -11.672763706
              ],
              [
                40.425494007,
                -11.674114977
              ],
              [
                40.417067166,
                -11.680821782
              ],
              [
                40.404821743,
                -11.679362733
              ],
              [
                40.403532346,
                -11.683245874
              ],
              [
                40.396776379,
                -11.6862307
              ],
              [
                40.392068949,
                -11.683749376
              ],
              [
                40.391233512,
                -11.685584141
              ],
              [
                40.394395959,
                -11.686928748
              ],
              [
                40.393949628,
                -11.690046132
              ],
              [
                40.39179428,
                -11.690280721
              ],
              [
                40.391397546,
                -11.687482799
              ],
              [
                40.389162089,
                -11.686732298
              ],
              [
                40.38786125,
                -11.688776859
              ],
              [
                40.388525017,
                -11.693291298
              ],
              [
                40.382261159,
                -11.691766454
              ],
              [
                40.382188677,
                -11.692979459
              ],
              [
                40.386045413,
                -11.694630179
              ],
              [
                40.381517274,
                -11.697080979
              ],
              [
                40.380266031,
                -11.692760125
              ],
              [
                40.377649096,
                -11.693007111
              ],
              [
                40.376733549,
                -11.694448984
              ],
              [
                40.379442036,
                -11.697923978
              ],
              [
                40.374528605,
                -11.700142095
              ],
              [
                40.375356414,
                -11.696117818
              ],
              [
                40.373113329,
                -11.693636496
              ],
              [
                40.368276193,
                -11.696534545
              ],
              [
                40.36695247,
                -11.693131073
              ],
              [
                40.364488126,
                -11.692763927
              ],
              [
                40.365090863,
                -11.689876365
              ],
              [
                40.367543764,
                -11.687821316
              ],
              [
                40.364766609,
                -11.687076536
              ],
              [
                40.364758981,
                -11.68479643
              ],
              [
                40.362294638,
                -11.684429284
              ],
              [
                40.360967099,
                -11.681250867
              ],
              [
                40.353970802,
                -11.682112934
              ],
              [
                40.348492789,
                -11.679256838
              ],
              [
                40.346707477,
                -11.676304428
              ],
              [
                40.335404301,
                -11.677995188
              ],
              [
                40.335499667,
                -11.681556006
              ],
              [
                40.332810251,
                -11.682110057
              ],
              [
                40.331818408,
                -11.684002039
              ],
              [
                40.333069651,
                -11.68809021
              ],
              [
                40.328133334,
                -11.686520547
              ],
              [
                40.328770398,
                -11.69083854
              ],
              [
                40.324379594,
                -11.690027006
              ],
              [
                40.322243318,
                -11.693376118
              ],
              [
                40.318535359,
                -11.690849975
              ],
              [
                40.318363684,
                -11.70351882
              ],
              [
                40.313389215,
                -11.708852414
              ],
              [
                40.313175585,
                -11.712340757
              ],
              [
                40.31055865,
                -11.712354106
              ],
              [
                40.306076293,
                -11.709192851
              ],
              [
                40.305366748,
                -11.705549067
              ],
              [
                40.300373212,
                -11.700552093
              ],
              [
                40.29735191,
                -11.701975846
              ],
              [
                40.296016737,
                -11.705097044
              ],
              [
                40.298477263,
                -11.708750365
              ],
              [
                40.29855737,
                -11.71274222
              ],
              [
                40.295871767,
                -11.715226398
              ],
              [
                40.296669051,
                -11.720546646
              ],
              [
                40.29257198,
                -11.724797882
              ],
              [
                40.289802456,
                -11.722660817
              ],
              [
                40.284095551,
                -11.726047118
              ],
              [
                40.279460602,
                -11.724227607
              ],
              [
                40.279636074,
                -11.733917342
              ],
              [
                40.274764605,
                -11.736662811
              ],
              [
                40.278384822,
                -11.741588263
              ],
              [
                40.279445324,
                -11.74816729
              ],
              [
                40.273295904,
                -11.752696027
              ],
              [
                40.26673068,
                -11.750692466
              ],
              [
                40.264178592,
                -11.754949425
              ],
              [
                40.257540889,
                -11.750676247
              ],
              [
                40.25517954,
                -11.754991377
              ],
              [
                40.250407261,
                -11.751208362
              ],
              [
                40.239798375,
                -11.750240429
              ],
              [
                40.235785239,
                -11.743546965
              ],
              [
                40.232950863,
                -11.742227152
              ],
              [
                40.219328304,
                -11.742538022
              ],
              [
                40.207567368,
                -11.728337653
              ],
              [
                40.200410856,
                -11.722799975
              ],
              [
                40.199079496,
                -11.727358279
              ],
              [
                40.19331537,
                -11.731248091
              ],
              [
                40.190938765,
                -11.73131675
              ],
              [
                40.186483113,
                -11.726527665
              ],
              [
                40.18442695,
                -11.726983494
              ],
              [
                40.183793696,
                -11.728750552
              ],
              [
                40.186124519,
                -11.732929318
              ],
              [
                40.184529941,
                -11.736290828
              ],
              [
                40.179059556,
                -11.734480852
              ],
              [
                40.177155992,
                -11.724670959
              ],
              [
                40.170724284,
                -11.723297741
              ],
              [
                40.160962276,
                -11.725366136
              ],
              [
                40.157204717,
                -11.73343376
              ],
              [
                40.144676998,
                -11.734620053
              ],
              [
                40.141415363,
                -11.738490795
              ],
              [
                40.130623367,
                -11.739488274
              ],
              [
                40.126903961,
                -11.74145845
              ],
              [
                40.126190599,
                -11.740138639
              ],
              [
                40.116352298,
                -11.739101092
              ],
              [
                40.113323369,
                -11.736581625
              ],
              [
                40.106319444,
                -11.736990723
              ],
              [
                40.102260526,
                -11.734721103
              ],
              [
                40.092693072,
                -11.736406143
              ],
              [
                40.088500638,
                -11.732927333
              ],
              [
                40.081939228,
                -11.731752467
              ],
              [
                40.076972397,
                -11.726200486
              ],
              [
                40.07603397,
                -11.716894106
              ],
              [
                40.069400081,
                -11.713304674
              ],
              [
                40.061068624,
                -11.70189174
              ],
              [
                40.061591252,
                -11.697271451
              ],
              [
                40.058733988,
                -11.694845438
              ],
              [
                40.051806358,
                -11.695250721
              ],
              [
                40.050028675,
                -11.692905768
              ],
              [
                40.044802434,
                -11.694902644
              ],
              [
                40.042795864,
                -11.693165147
              ],
              [
                40.041620918,
                -11.687635102
              ],
              [
                40.03372816,
                -11.676738078
              ],
              [
                40.030931936,
                -11.669694636
              ],
              [
                40.029829472,
                -11.662869576
              ],
              [
                40.03165294,
                -11.655801344
              ],
              [
                40.027784763,
                -11.65119917
              ],
              [
                40.023859361,
                -11.650900684
              ],
              [
                40.019460929,
                -11.647577314
              ],
              [
                40.017912134,
                -11.644480908
              ],
              [
                40.018038027,
                -11.636781378
              ],
              [
                40.015947534,
                -11.632988829
              ],
              [
                40.001935871,
                -11.631759601
              ],
              [
                39.991067587,
                -11.623159846
              ],
              [
                39.987054445,
                -11.62285373
              ],
              [
                39.977883726,
                -11.626319179
              ],
              [
                39.965111863,
                -11.625641145
              ],
              [
                39.954354198,
                -11.628793804
              ],
              [
                39.949089807,
                -11.632299308
              ],
              [
                39.945099548,
                -11.638656137
              ],
              [
                39.939301091,
                -11.640342133
              ],
              [
                39.930210487,
                -11.637040692
              ],
              [
                39.900649806,
                -11.635058092
              ],
              [
                39.894725465,
                -11.631688947
              ],
              [
                39.876689211,
                -11.634977969
              ],
              [
                39.866324475,
                -11.62970158
              ],
              [
                39.855036558,
                -11.631076691
              ],
              [
                39.851362932,
                -11.629384966
              ],
              [
                39.85911076,
                -11.603138484
              ],
              [
                39.868983439,
                -11.549729086
              ],
              [
                39.790525072,
                -11.444725909
              ],
              [
                39.815458446,
                -11.429984869
              ],
              [
                39.828909349,
                -11.417073817
              ],
              [
                39.848627926,
                -11.403531473
              ],
              [
                39.867034213,
                -11.399020865
              ],
              [
                39.894687517,
                -11.389117542
              ],
              [
                39.914215357,
                -11.372407272
              ],
              [
                39.937847902,
                -11.346985686
              ],
              [
                39.948826828,
                -11.338435536
              ],
              [
                39.988130452,
                -11.327076044
              ],
              [
                40.017157075,
                -11.316452739
              ],
              [
                40.018267211,
                -11.269222797
              ],
              [
                40.016619233,
                -11.264366963
              ],
              [
                40.007620259,
                -11.166669533
              ],
              [
                40.017653154,
                -11.116365129
              ],
              [
                40.037993537,
                -11.103467433
              ],
              [
                40.08009722,
                -11.072304116
              ],
              [
                40.081035663,
                -11.061955432
              ],
              [
                40.084449886,
                -11.060698563
              ],
              [
                40.093662564,
                -11.062034592
              ],
              [
                40.105499814,
                -11.05260616
              ]
            ]
          ]
        ]
      }
    }
  ]
}